{
  "type": "FeatureCollection",
  "features": [
    {
      "type": "Feature",
      "properties": {
        "location_id": "deu-by",
        "name": "Bavaria"
      },
      "geometry": {
        "type": "Polygon",
        "coordinates": [
          [
            [9.0, 47.2],
            [13.8, 47.2],
            [13.8, 50.6],
            [9.0, 50.6],
            [9.0, 47.2]
          ]
        ]
      }
    },
    {
      "type": "Feature",
      "properties": {
        "location_id": "deu-be",
        "name": "Berlin"
      },
      "geometry": {
        "type": "Polygon",
        "coordinates": [
          [
            [13.08, 52.34],
            [13.76, 52.34],
            [13.76, 52.68],
            [13.08, 52.68],
            [13.08, 52.34]
          ]
        ]
      }
    },
    {
      "type": "Feature",
      "properties": {
        "location_id": "usa-ca",
        "name": "California"
      },
      "geometry": {
        "type": "Polygon",
        "coordinates": [
          [
            [-124.5, 32.5],
            [-114.1, 32.5],
            [-114.1, 42.0],
            [-124.5, 42.0],
            [-124.5, 32.5]
          ]
        ]
      }
    },
    {
      "type": "Feature",
      "properties": {
        "location_id": "ukr-30",
        "name": "Kyiv Region"
      },
      "geometry": {
        "type": "Polygon",
        "coordinates": [
          [
            [29.1, 49.1],
            [32.2, 49.1],
            [32.2, 51.7],
            [29.1, 51.7],
            [29.1, 49.1]
          ]
        ]
      }
    }
  ]
}
